TEVEL2-4                
1 63213U 25052D   26068.69417973  .00020990  00000+0  70363-3 0  9998
2 63213  97.4009 325.1237 0004733  95.3468 264.8313 15.30925813 54879
STARLINK-35900          
1 66886U 25283J   26068.17543655  .00029525  00000+0  10055-2 0  9997
2 66886  53.1612  26.6843 0001219  73.9111 286.2024 15.30183452 15763
